CCSDS_OEM_VERS = 1.0
CREATION_DATE  = 2017-05-11T11:40:27
ORIGINATOR     = GMAT USER

META_START
OBJECT_NAME          = MOPSSat_alt_35785_km_RAAN_180_118
OBJECT_ID            = SatId
CENTER_NAME          = Earth
REF_FRAME            = EME2000
TIME_SYSTEM          = UTC
START_TIME           = 2017-01-01T00:00:00.000
USEABLE_START_TIME   = 2017-01-01T00:00:00.000
USEABLE_STOP_TIME    = 2017-01-02T00:00:00.000
STOP_TIME            = 2017-01-02T00:00:00.000
INTERPOLATION        = Lagrange
INTERPOLATION_DEGREE = 7 
META_STOP


                                                                                   

2017-01-01T07:01:40.000   3.406188737724622e+04  -3.464264223369319e+04  -4.631494966920052e-01   2.298604095463772e+00   1.292984507824688e+00  -6.167269804024192e-05
2017-01-01T07:01:50.000   3.408486749828399e+04  -3.462970636934601e+04  -4.637664232308757e-01   2.297419983063852e+00   1.294188156281494e+00  -6.171260582906577e-05
2017-01-01T07:02:00.000   3.410783577667412e+04  -3.461675847335241e+04  -4.643837487934411e-01   2.296235576368928e+00   1.295390842984696e+00  -6.175250305123819e-05
2017-01-01T07:02:10.000   3.413079220938687e+04  -3.460379855537761e+04  -4.650014732715044e-01   2.295050875928438e+00   1.296592568448414e+00  -6.179238968041171e-05
2017-01-01T07:02:20.000   3.415373679342515e+04  -3.459082662506732e+04  -4.656195965573001e-01   2.293865882289517e+00   1.297793333187866e+00  -6.183226569028489e-05
2017-01-01T07:02:30.000   3.417666952585070e+04  -3.457784269203161e+04  -4.662381185442502e-01   2.292680595995582e+00   1.298993137720717e+00  -6.187213105465424e-05
2017-01-01T07:02:40.000   3.419959040371484e+04  -3.456484676588464e+04  -4.668570391250726e-01   2.291495017589950e+00   1.300191982563466e+00  -6.191198574729150e-05
2017-01-01T07:02:50.000   3.422249942435927e+04  -3.455183885607242e+04  -4.674763581999768e-01   2.290309147600186e+00   1.301389868247141e+00  -6.195182974247315e-05
2017-01-01T07:03:00.000   3.424539658505113e+04  -3.453881897208128e+04  -4.680960756667417e-01   2.289122986557063e+00   1.302586795298253e+00  -6.199166301433968e-05
2017-01-01T07:03:10.000   3.426828188312113e+04  -3.452578712335926e+04  -4.687161914244624e-01   2.287936534987397e+00   1.303782764246008e+00  -6.203148553713760e-05
2017-01-01T07:03:20.000   3.429115531542832e+04  -3.451274331962069e+04  -4.693367053590527e-01   2.286749793441797e+00   1.304977775594331e+00  -6.207129728428353e-05
2017-01-01T07:03:30.000   3.431401687889537e+04  -3.449968757054168e+04  -4.699576173577393e-01   2.285562762466920e+00   1.306171829849848e+00  -6.211109822929998e-05
2017-01-01T07:03:40.000   3.433686657037022e+04  -3.448661988583854e+04  -4.705789273053243e-01   2.284375442612635e+00   1.307364927514654e+00  -6.215088834557368e-05
2017-01-01T07:03:50.000   3.435970438699239e+04  -3.447354027506070e+04  -4.712006350940603e-01   2.283187834413096e+00   1.308557069105471e+00  -6.219066760699541e-05
2017-01-01T07:04:00.000   3.438253032589041e+04  -3.446044874776123e+04  -4.718227406155102e-01   2.281999938402361e+00   1.309748255137821e+00  -6.223043598743148e-05
2017-01-01T07:04:10.000   3.440534438425169e+04  -3.444734531345779e+04  -4.724452437624204e-01   2.280811755110786e+00   1.310938486129676e+00  -6.227019346084561e-05
2017-01-01T07:04:20.000   3.442814655929476e+04  -3.443422998164702e+04  -4.730681444280193e-01   2.279623285066413e+00   1.312127762599989e+00  -6.230994000124949e-05
2017-01-01T07:04:30.000   3.445093684825711e+04  -3.442110276181264e+04  -4.736914425056443e-01   2.278434528795647e+00   1.313316085068083e+00  -6.234967558268293e-05
2017-01-01T07:04:40.000   3.447371524836798e+04  -3.440796366344111e+04  -4.743151378879983e-01   2.277245486824686e+00   1.314503454052227e+00  -6.238940017916593e-05
2017-01-01T07:04:50.000   3.449648175683489e+04  -3.439481269602833e+04  -4.749392304668211e-01   2.276056159680163e+00   1.315689870068911e+00  -6.242911376467666e-05
2017-01-01T07:05:00.000   3.451923637081761e+04  -3.438164986909591e+04  -4.755637201321298e-01   2.274866547890578e+00   1.316875333631527e+00  -6.246881631310466e-05
2017-01-01T07:05:10.000   3.454197908749701e+04  -3.436847519215093e+04  -4.761886067741251e-01   2.273676651982669e+00   1.318059845253932e+00  -6.250850779837124e-05
2017-01-01T07:05:20.000   3.456470990377650e+04  -3.435528867486060e+04  -4.768138902749193e-01   2.272486472497124e+00   1.319243405434938e+00  -6.254818819390829e-05
2017-01-01T07:05:30.000   3.458742881664402e+04  -3.434209032684086e+04  -4.774395705185536e-01   2.271296009969555e+00   1.320426014677132e+00  -6.258785747328984e-05
2017-01-01T07:05:40.000   3.461013582303726e+04  -3.432888015773476e+04  -4.780656473872753e-01   2.270105264937571e+00   1.321607673479871e+00  -6.262751560999752e-05
2017-01-01T07:05:50.000   3.463283092036620e+04  -3.431565817690892e+04  -4.786921207759379e-01   2.268914237913394e+00   1.322788382366465e+00  -6.266716257832964e-05
2017-01-01T07:06:00.000   3.465551410599172e+04  -3.430242439375619e+04  -4.793189905776417e-01   2.267722929411174e+00   1.323968141857048e+00  -6.270679835249458e-05
2017-01-01T07:06:10.000   3.467818537734402e+04  -3.428917881762743e+04  -4.799462566869809e-01   2.266531339940810e+00   1.325146952474749e+00  -6.274642290681585e-05
2017-01-01T07:06:20.000   3.470084473162732e+04  -3.427592145800131e+04  -4.805739189919737e-01   2.265339470023337e+00   1.326324814730288e+00  -6.278603621522226e-05
2017-01-01T07:06:30.000   3.472349216603950e+04  -3.426265232435865e+04  -4.812019773800391e-01   2.264147320179522e+00   1.327501729133443e+00  -6.282563825162537e-05
2017-01-01T07:06:40.000   3.474612767777150e+04  -3.424937142618181e+04  -4.818304317380165e-01   2.262954890929840e+00   1.328677696193004e+00  -6.286522898992095e-05
2017-01-01T07:06:50.000   3.476875126379114e+04  -3.423607877308396e+04  -4.824592819460727e-01   2.261762182805981e+00   1.329852716405583e+00  -6.290480840360403e-05
2017-01-01T07:07:00.000   3.479136292113486e+04  -3.422277437463544e+04  -4.830885278858896e-01   2.260569196335376e+00   1.331026790270734e+00  -6.294437646628589e-05
2017-01-01T07:07:10.000   3.481396264679261e+04  -3.420945824043219e+04  -4.837181694374456e-01   2.259375932047285e+00   1.332199918284978e+00  -6.298393315149050e-05
2017-01-01T07:07:20.000   3.483655043821785e+04  -3.419613037979508e+04  -4.843482064932214e-01   2.258182390445882e+00   1.333372100968281e+00  -6.302347843355267e-05
2017-01-01T07:07:30.000   3.485912629281737e+04  -3.418279080207034e+04  -4.849786389439983e-01   2.256988572037169e+00   1.334543338837570e+00  -6.306301228671978e-05
2017-01-01T07:07:40.000   3.488169020806692e+04  -3.416943951656186e+04  -4.856094666820607e-01   2.255794477322905e+00   1.335713632412735e+00  -6.310253468535584e-05
2017-01-01T07:07:50.000   3.490424218121723e+04  -3.415607653270250e+04  -4.862406895930832e-01   2.254600106816026e+00   1.336882982201344e+00  -6.314204560342261e-05
2017-01-01T07:08:00.000   3.492678220951268e+04  -3.414270185992737e+04  -4.868723075621369e-01   2.253405461029212e+00   1.338051388710029e+00  -6.318154501486655e-05
2017-01-01T07:08:10.000   3.494931029019066e+04  -3.412931550767312e+04  -4.875043204737143e-01   2.252210540474868e+00   1.339218852444432e+00  -6.322103289361647e-05
2017-01-01T07:08:20.000   3.497182642026654e+04  -3.411591748550838e+04  -4.881367282055983e-01   2.251015345676650e+00   1.340385373898105e+00  -6.326050921321057e-05
2017-01-01T07:08:30.000   3.499433059682385e+04  -3.410250780295872e+04  -4.887695306370979e-01   2.249819877153964e+00   1.341550953567514e+00  -6.329997394730106e-05
2017-01-01T07:08:40.000   3.501682281689762e+04  -3.408908646957681e+04  -4.894027276457484e-01   2.248624135428180e+00   1.342715591945996e+00  -6.333942706945120e-05
2017-01-01T07:08:50.000   3.503930307799043e+04  -3.407565349463435e+04  -4.900363191218399e-01   2.247428120995204e+00   1.343879289550489e+00  -6.337886855403536e-05
2017-01-01T07:09:00.000   3.506177137755495e+04  -3.406220888743084e+04  -4.906703049538557e-01   2.246231834352983e+00   1.345042046894726e+00  -6.341829837533646e-05
2017-01-01T07:09:10.000   3.508422771312754e+04  -3.404875265721389e+04  -4.913046850322275e-01   2.245035275994403e+00   1.346203864496165e+00  -6.345771650777875e-05
2017-01-01T07:09:20.000   3.510667208196843e+04  -3.403528481339282e+04  -4.919394592392511e-01   2.243838446426372e+00   1.347364742857330e+00  -6.349712292530219e-05
2017-01-01T07:09:30.000   3.512910448135885e+04  -3.402180536536272e+04  -4.925746274574003e-01   2.242641346154082e+00   1.348524682481230e+00  -6.353651760187805e-05
2017-01-01T07:09:40.000   3.515152490853464e+04  -3.400831432254359e+04  -4.932101895674743e-01   2.241443975684522e+00   1.349683683867902e+00  -6.357590051139425e-05
2017-01-01T07:09:50.000   3.517393336070515e+04  -3.399481169437047e+04  -4.938461454490749e-01   2.240246335525545e+00   1.350841747515422e+00  -6.361527162768326e-05
2017-01-01T07:10:00.000   3.519632983507474e+04  -3.398129749027931e+04  -4.944824949812638e-01   2.239048426184658e+00   1.351998873920992e+00  -6.365463092456491e-05
2017-01-01T07:10:10.000   3.521871432885095e+04  -3.396777171970216e+04  -4.951192380427891e-01   2.237850248168593e+00   1.353155063581370e+00  -6.369397837585948e-05
2017-01-01T07:10:20.000   3.524108683932498e+04  -3.395423439201929e+04  -4.957563745143495e-01   2.236651801979034e+00   1.354310316997030e+00  -6.373331395553215e-05
2017-01-01T07:10:30.000   3.526344736381777e+04  -3.394068551659078e+04  -4.963939042770927e-01   2.235453088115469e+00   1.355464634669374e+00  -6.377263763759538e-05
2017-01-01T07:10:40.000   3.528579589968013e+04  -3.392712510275680e+04  -4.970318272126112e-01   2.234254107075180e+00   1.356618017100736e+00  -6.381194939611007e-05
